OBJECT_NAME,OBJECT_ID,EPOCH,MEAN_MOTION,ECCENTRICITY,INCLINATION,RA_OF_ASC_NODE,ARG_OF_PERICENTER,MEAN_ANOMALY,EPHEMERIS_TYPE,CLASSIFICATION_TYPE,NORAD_CAT_ID,ELEMENT_SET_NO,REV_AT_EPOCH,BSTAR,MEAN_MOTION_DOT,MEAN_MOTION_DDOT
ONEWEB-0196,2021-031J,2026-06-18T14:05:31.458624,13.14503561,.000204,87.8966,289.4276,104.4952,255.6405,0,U,48218,999,24841,-.32023E-3,-.106E-5,0
ONEWEB-0183,2021-031K,2026-06-18T18:57:49.195872,13.14503218,.0002051,87.8966,289.3854,95.9029,264.2335,0,U,48219,999,24853,.46871E-3,.187E-5,0
ONEWEB-0185,2021-031L,2026-06-18T14:06:39.341376,13.14502953,.0002354,87.8974,289.4192,100.2807,259.8588,0,U,48220,999,24843,-.38567E-3,-.13E-5,0
ONEWEB-0187,2021-031M,2026-06-18T13:37:54.080256,13.14511193,.0002165,87.8962,289.4386,103.3267,256.8104,0,U,48221,999,24844,-.49263E-2,-.1813E-4,0
ONEWEB-0192,2021-031N,2026-06-18T18:23:33.369216,13.14501880,.0001927,87.8965,289.3895,104.6984,255.4359,0,U,48222,999,24838,.15862E-3,.72E-6,0
ONEWEB-0219,2021-031P,2026-06-18T17:53:51.091008,13.14501556,.0002173,87.8968,289.3858,103.1036,257.0336,0,U,48223,999,24858,-.55327E-3,-.192E-5,0
ONEWEB-0202,2021-031Q,2026-06-18T17:26:29.008032,13.14502480,.0001909,87.8969,289.4018,121.4420,238.6896,0,U,48224,999,24856,-.86858E-4,-.19E-6,0
ONEWEB-0204,2021-031R,2026-06-18T18:15:33.336864,13.14512892,.0002085,87.8970,289.3896,93.3286,266.8082,0,U,48225,999,24846,.26053E-2,.979E-5,0
ONEWEB-0205,2021-031S,2026-06-18T14:00:56.011104,13.14501610,.0002203,87.8974,289.4179,105.6735,254.4638,0,U,48226,999,24845,-.27786E-3,-.9E-6,0
ONEWEB-0206,2021-031T,2026-06-18T18:50:57.750432,13.14503859,.0001786,87.8972,289.3795,97.2880,262.8453,0,U,48227,999,24843,.6297E-3,.246E-5,0
ONEWEB-0182,2021-031U,2026-06-18T18:44:07.194048,13.14503145,.0002047,87.8967,289.3881,94.9913,265.1450,0,U,48228,999,24864,.74735E-3,.29E-5,0
ONEWEB-0186,2021-031V,2026-06-18T17:10:29.536032,13.14502320,.0002025,87.8978,289.3917,102.5341,257.6015,0,U,48229,999,24858,.42685E-3,.171E-5,0
ONEWEB-0181,2021-031W,2026-06-18T18:28:08.046048,13.14503084,.0002016,87.8956,289.4100,105.9749,254.1603,0,U,48230,999,24844,.30644E-3,.126E-5,0
ONEWEB-0188,2021-031X,2026-06-18T17:33:18.949248,13.14503794,.0001987,87.8959,289.4168,100.9610,259.1743,0,U,48231,999,24834,-.29094E-3,-.95E-6,0
ONEWEB-0220,2021-031Y,2026-06-18T18:30:24.145056,13.14502513,.0002259,87.8973,289.3822,103.3329,256.8053,0,U,48232,999,24861,.33263E-3,.136E-5,0
ONEWEB-0165,2021-031Z,2026-06-18T17:21:54.510048,13.14501552,.0001997,87.8969,289.4044,111.8458,248.2885,0,U,48233,999,24856,-.41256E-4,-.3E-7,0
ONEWEB-0199,2021-031AA,2026-06-18T18:48:40.972320,13.14503686,.0001811,87.8974,289.3785,95.9827,264.1509,0,U,48234,999,24847,.69221E-3,.269E-5,0
ONEWEB-0203,2021-031AB,2026-06-18T18:34:59.373120,13.14502859,.0001798,87.8974,289.3837,103.7388,256.3942,0,U,48235,999,24848,.50377E-3,.2E-5,0
ONEWEB-0197,2021-031AC,2026-06-18T17:58:14.152224,13.14504206,.0002189,87.8963,289.3747,97.0310,263.1068,0,U,48236,999,24839,-.57174E-3,-.199E-5,0
ONEWEB-0194,2021-031AD,2026-06-18T17:28:45.743808,13.14502137,.0001688,87.8969,289.4010,98.7177,261.4144,0,U,48237,999,24856,-.82813E-4,-.18E-6,0
ONEWEB-0193,2021-031AE,2026-06-18T17:51:35.327232,13.14502916,.0001519,87.8969,289.3886,95.2808,264.8495,0,U,48238,999,24851,-.59678E-3,-.208E-5,0
ONEWEB-0191,2021-031AF,2026-06-18T18:07:34.908960,13.14503426,.0002049,87.8974,289.3851,96.6090,263.5273,0,U,48239,999,24837,-.30488E-3,-.1E-5,0
ONEWEB-0195,2021-031AG,2026-06-18T17:34:27.665760,13.14501467,.0002084,87.8973,289.3900,111.2761,248.8592,0,U,48240,999,24835,-.33511E-3,-.111E-5,0
ONEWEB-0201,2021-031AH,2026-06-18T17:17:31.074720,13.14504193,.0002224,87.8965,289.4083,97.5283,262.6100,0,U,48241,999,24858,.10892E-3,.53E-6,0
ONEWEB-0207,2021-031AJ,2026-06-18T18:38:24.459936,13.14503591,.0002198,87.8972,289.3821,98.1515,261.9864,0,U,48242,999,24850,.71113E-3,.276E-5,0
ONEWEB-0208,2021-031AK,2026-06-18T18:12:08.643168,13.14503883,.0002019,87.8969,289.3922,111.4581,248.6764,0,U,48243,999,24851,-.16831E-3,-.5E-6,0
ONEWEB-0200,2021-031AL,2026-06-18T17:19:37.286112,13.14502553,.0002,87.8977,289.3863,102.9711,257.1642,0,U,48244,999,24843,.13822E-3,.64E-6,0
ONEWEB-0217,2021-031AM,2026-06-18T17:42:26.300160,13.14499108,.0002002,87.8975,289.3876,112.0222,248.1120,0,U,48245,999,24838,.71307E-3,.277E-5,0
ONEWEB-0211,2021-045A,2026-06-18T18:53:47.859072,13.16196104,.0001891,87.9009,258.7624,122.1072,238.0243,0,U,48767,999,24465,.53191E-3,.215E-5,0
ONEWEB-0223,2021-045B,2026-06-18T17:08:46.014144,13.15549845,.0001737,87.9012,258.8859,112.1098,248.0217,0,U,48768,999,24460,.18015E-3,.81E-6,0
